      2.10          N: GNSS NAV DATA                        RINEX VERSION / TYPE
fic2rin                                 05/06/2019 00:19:27 PGM / RUN BY / DATE
                                                            END OF HEADER
13 19  5  5 10  0  0.0-6.499234586954e-05 1.591615728103e-12 0.000000000000e+00
    3.800000000000e+01-3.781250000000e+00 4.290178703163e-09 2.583047685550e+00
   -2.831220626831e-07 3.559613833204e-03 1.147948205471e-05 5.153667245865e+03
    3.600000000000e+04 3.352761268616e-08-3.902570047536e-01-8.754432201385e-08
    9.682910274251e-01 1.614375000000e+02 1.313734241756e+00-7.712106954496e-09
   -5.721666901821e-10 1.000000000000e+00 2.052000000000e+03 0.000000000000e+00
    2.400000000000e+00 0.000000000000e+00-1.117587089539e-08 3.800000000000e+01
    2.880000000000e+04 4.000000000000e+00
31 19  5  5 10  0  0.0 4.034722223878e-05-2.614797267597e-12 0.000000000000e+00
    2.500000000000e+01 1.055937500000e+02 4.485901141503e-09 4.644735365357e-01
    5.546957254410e-06 9.190702694468e-03 9.229406714439e-06 5.153609405518e+03
    3.600000000000e+04 1.434236764908e-07 5.624757733280e-01 2.235174179077e-08
    9.605629534740e-01 1.974687500000e+02 2.303051451337e-03-8.108909197188e-09
    1.100045821324e-10 1.000000000000e+00 2.052000000000e+03 0.000000000000e+00
    2.400000000000e+00 0.000000000000e+00-1.350417733192e-08 2.500000000000e+01
    2.880000000000e+04 4.000000000000e+00
22 19  5  5 10  0  0.0-6.956178694963e-04-6.480149750132e-12 0.000000000000e+00
    8.400000000000e+01 1.812500000000e+01 5.842386215980e-09 2.826067990904e+00
    6.854534149170e-07 7.264177897014e-03 3.797933459282e-06 5.153806106567e+03
    3.600000000000e+04 2.048909664154e-07-1.631916324391e+00 1.862645149231e-09
    9.267779386040e-01 2.875000000000e+02-1.356099402823e+00-8.682504518307e-09
    1.882221259213e-10 1.000000000000e+00 2.052000000000e+03 0.000000000000e+00
    2.400000000000e+00 0.000000000000e+00-1.816079020500e-08 8.400000000000e+01
    2.880000000000e+04 4.000000000000e+00
11 19  5  5 10  0  0.0-6.131008267403e-04 7.730704965070e-12 0.000000000000e+00
    7.800000000000e+01-5.387500000000e+01 5.411653988539e-09 7.346313145830e-01
   -2.952292561531e-06 1.656703255139e-02 1.174397766590e-05 5.153705911636e+03
    3.600000000000e+04-1.173466444016e-07-3.051264766545e+00-2.793967723846e-07
    9.096127644513e-01 1.299687500000e+02 1.881997968541e+00-8.670361155344e-09
    2.175090601254e-10 1.000000000000e+00 2.052000000000e+03 0.000000000000e+00
    2.400000000000e+00 0.000000000000e+00-1.257285475731e-08 7.800000000000e+01
    2.880000000000e+04 4.000000000000e+00
10 19  5  5 10  0  0.0 5.496945232153e-05-1.045918907039e-11 0.000000000000e+00
    7.800000000000e+01 1.056250000000e+01 5.026995108810e-09-6.367951467882e-01
    6.537884473801e-07 4.521911614574e-03 4.313886165619e-06 5.153652860641e+03
    3.600000000000e+04 4.284083843231e-08-1.562874811186e+00 4.097819328308e-08
    9.623253323471e-01 2.957500000000e+02-2.692791431583e+00-8.335347200668e-09
    2.203663219990e-10 1.000000000000e+00 2.052000000000e+03 0.000000000000e+00
    2.400000000000e+00 0.000000000000e+00 1.862645149231e-09 7.800000000000e+01
    2.880000000000e+04 4.000000000000e+00
27 19  5  5 10  0  0.0-1.243366859853e-04-9.094947017729e-12 0.000000000000e+00
    5.500000000000e+01-1.224375000000e+02 3.799086818644e-09-2.680162059805e+00
   -6.334856152534e-06 7.078387774527e-03 8.536502718925e-06 5.153647127151e+03
    3.600000000000e+04-1.490116119385e-08 2.626186952645e+00-6.332993507385e-08
    9.787436985236e-01 2.254062500000e+02 4.777706148467e-01-7.732822103079e-09
   -2.232235838726e-10 1.000000000000e+00 2.052000000000e+03 0.000000000000e+00
    2.400000000000e+00 0.000000000000e+00 1.396983861923e-09 5.500000000000e+01
    2.880000000000e+04 4.000000000000e+00
25 19  5  5 10  0  0.0-7.530404254794e-04-3.979039320257e-12 0.000000000000e+00
    3.500000000000e+01 1.956250000000e+01 4.774484590733e-09-2.646904128467e-01
    1.050531864166e-06 8.443994098343e-03 9.741634130478e-07 5.153715328217e+03
    3.600000000000e+04-3.539025783539e-08 1.584430996859e+00 1.173466444016e-07
    9.701692328370e-01 3.631562500000e+02 8.939522088577e-01-8.668218208939e-09
   -4.785913638228e-11 1.000000000000e+00 2.052000000000e+03 0.000000000000e+00
    2.400000000000e+00 0.000000000000e+00 6.053596735001e-09 3.500000000000e+01
    2.880000000000e+04 4.000000000000e+00
30 19  5  5 10  0  0.0-9.887665510178e-05-7.048583938740e-12 0.000000000000e+00
    2.900000000000e+01 1.277187500000e+02 4.869488548029e-09 8.492640845608e-01
    6.709247827530e-06 3.972832579166e-03 8.350238204002e-06 5.153603420258e+03
    3.600000000000e+04 3.166496753693e-08 5.770089574363e-01 3.911554813385e-08
    9.414630145706e-01 2.036250000000e+02-2.986532004977e+00-8.311417632477e-09
    1.132190017402e-10 1.000000000000e+00 2.052000000000e+03 0.000000000000e+00
    2.400000000000e+00 0.000000000000e+00 3.725290298462e-09 2.900000000000e+01
    2.880000000000e+04 4.000000000000e+00
29 19  5  5 10  0  0.0 2.091787755489e-04-9.322320693173e-12 0.000000000000e+00
    2.900000000000e+01-1.304062500000e+02 3.720154959386e-09-2.034300604031e+00
   -6.753951311111e-06 1.005341298878e-03 8.912757039070e-06 5.153765457153e+03
    3.600000000000e+04 8.381903171539e-08 2.693306209049e+00 1.862645149231e-09
    9.857649577530e-01 2.214375000000e+02 1.635790287997e+00-7.736036522687e-09
   -3.400141629547e-10 1.000000000000e+00 2.052000000000e+03 0.000000000000e+00
    2.400000000000e+00 0.000000000000e+00-9.778887033463e-09 2.900000000000e+01
    2.880000000000e+04 4.000000000000e+00
26 19  5  5 10  0  0.0 1.934566535056e-04 9.777068044059e-12 0.000000000000e+00
    3.200000000000e+01 2.162500000000e+01 4.998779647808e-09-8.845880614548e-01
    1.113861799240e-06 3.723098430783e-03 7.450580596924e-07 5.153596504211e+03
    3.600000000000e+04 8.381903171539e-08 1.556239997860e+00-3.539025783539e-08
    9.514891982357e-01 3.614687500000e+02 1.708931643748e-01-8.635359697393e-09
   -3.392998474863e-11 1.000000000000e+00 2.052000000000e+03 0.000000000000e+00
    2.400000000000e+00 0.000000000000e+00 7.450580596924e-09 3.200000000000e+01
    2.880000000000e+04 4.000000000000e+00
32 19  5  5 10  0  0.0-1.016203314066e-04 1.716671249596e-11 0.000000000000e+00
    8.800000000000e+01-3.578125000000e+01 4.686623788121e-09-2.024941353015e+00
   -1.801177859306e-06 3.003926482052e-03 1.004897058010e-05 5.153585445404e+03
    3.600000000000e+04 3.352761268616e-08-5.204913820410e-01-3.539025783539e-08
    9.569820357659e-01 1.832187500000e+02-2.517637402732e+00-7.996047353182e-09
   -5.328793394206e-10 1.000000000000e+00 2.052000000000e+03 0.000000000000e+00
    2.400000000000e+00 0.000000000000e+00 4.656612873077e-10 8.800000000000e+01
    2.880000000000e+04 4.000000000000e+00
18 19  5  5 10  0  0.0 5.040131509304e-05 3.410605131648e-12 0.000000000000e+00
    6.700000000000e+01 5.312500000000e-01 4.455185576362e-09 1.193119194524e+00
   -5.401670932770e-08 1.526108593680e-02 1.130998134613e-05 5.153711008072e+03
    3.600000000000e+04-2.961605787277e-07-2.656733044944e+00-1.844018697739e-07
    9.540636063616e-01 1.603437500000e+02 1.385781157770e+00-8.148910863418e-09
    5.396653363703e-10 1.000000000000e+00 2.052000000000e+03 0.000000000000e+00
    2.400000000000e+00 0.000000000000e+00-5.587935447693e-09 6.700000000000e+01
    2.880000000000e+04 4.000000000000e+00
28 19  5  5 10  0  0.0 7.677772082388e-04 1.136868377216e-13 0.000000000000e+00
    6.700000000000e+01-1.412500000000e+01 4.305536485734e-09-1.843206315501e+00
   -4.544854164124e-07 1.906865404453e-02 9.015202522278e-07 5.153699373245e+03
    3.600000000000e+04 1.713633537292e-07 1.671426963631e+00 3.743916749954e-07
    9.820142786421e-01 3.737500000000e+02-1.468145954538e+00-8.184983794572e-09
   -1.900079145923e-10 1.000000000000e+00 2.052000000000e+03 0.000000000000e+00
    2.400000000000e+00 0.000000000000e+00-1.117587089539e-08 6.700000000000e+01
    2.880000000000e+04 4.000000000000e+00
17 19  5  5 10  0  0.0 4.978710785508e-05 6.025402399246e-12 0.000000000000e+00
    1.790000000000e+02-1.289375000000e+02 3.596935541089e-09-2.739912900667e+00
   -6.539747118950e-06 1.284422038589e-02 9.652227163315e-06 5.153741607666e+03
    3.600000000000e+04 1.341104507446e-07 2.682205125844e+00-1.117587089539e-08
    9.843053370911e-01 2.034375000000e+02-1.712986337717e+00-7.449596019862e-09
   -2.614394614315e-10 1.000000000000e+00 2.052000000000e+03 0.000000000000e+00
    2.400000000000e+00 0.000000000000e+00-1.117587089539e-08 1.790000000000e+02
    2.880000000000e+04 4.000000000000e+00
 4 19  5  5 10  0  0.0 1.571085304022e-04 3.979039320257e-12 0.000000000000e+00
    3.100000000000e+01-1.328125000000e+01 4.638764651739e-09 6.954467729496e-01
   -6.724148988724e-07 4.043088993058e-04 1.059472560883e-05 5.153766683578e+03
    3.600000000000e+04 1.117587089539e-08-4.820724132339e-01 5.401670932770e-08
    9.601169141404e-01 1.777187500000e+02-1.597497200365e+00-7.951045478673e-09
   -5.114498753688e-10 1.000000000000e+00 2.052000000000e+03 0.000000000000e+00
    4.850000000000e+00 6.300000000000e+01-8.847564458847e-09 5.430000000000e+02
    2.886000000000e+04 4.000000000000e+00
 3 19  5  5  9 59 44.0 1.882277429104e-04-2.273736754432e-13 0.000000000000e+00
    4.000000000000e+00 7.250000000000e+00 5.077711507066e-09 5.295490583467e-01
    2.197921276093e-07 2.120074699633e-03 4.315748810768e-06 5.153787443161e+03
    3.598400000000e+04 3.539025783539e-08-1.559632221079e+00-7.450580596924e-09
    9.622998965904e-01 3.009687500000e+02 5.774135025615e-01-8.377491813303e-09
    1.053615315878e-10 1.000000000000e+00 2.052000000000e+03 0.000000000000e+00
    2.400000000000e+00 0.000000000000e+00 1.862645149231e-09 4.000000000000e+00
    3.114000000000e+04 4.000000000000e+00
